{
  "type": "FeatureCollection",
  "features": [
    {
      "type": "Feature",
      "properties": {
        "norad_id": 34350,
        "name": "IRIDIUM 33 DEB",
        "group": "iridium-33-debris",
        "lat": 32.88341192142431,
        "lon": 175.88359792834925,
        "alt_km": 726.7542942051205,
        "timestamp": "2025-12-23T05:02:12.415117+00:00",
        "meta_object_name": "IRIDIUM 33 DEB",
        "meta_object_id": "1997-051ES",
        "meta_epoch": "2025-12-22T12:19:49.336608",
        "meta_mean_motion": 14.45408788,
        "meta_eccentricity": 0.0023434,
        "meta_inclination": 86.3272,
        "meta_ra_of_asc_node": 358.5656,
        "meta_arg_of_pericenter": 105.2385,
        "meta_mean_anomaly": 21.6906,
        "meta_ephemeris_type": 0,
        "meta_classification_type": "U",
        "meta_norad_cat_id": 34350,
        "meta_element_set_no": 999,
        "meta_rev_at_epoch": 88434,
        "meta_bstar": 0.00030728389,
        "meta_mean_motion_dot": 1.104e-05,
        "meta_mean_motion_ddot": 0,
        "tle_line1": "1 34350U 97051ES  25356.51376547  .00001104  00000+0  30728-3 0  9994",
        "tle_line2": "2 34350  86.3272 358.5656 0023434 105.2385  21.6906 14.45408788884343"
      },
      "geometry": {
        "type": "Point",
        "coordinates": [
          175.88359792834925,
          32.88341192142431
        ]
      }
    },
    {
      "type": "Feature",
      "properties": {
        "norad_id": 34366,
        "name": "IRIDIUM 33 DEB",
        "group": "iridium-33-debris",
        "lat": 81.22412547320548,
        "lon": 69.05036390587921,
        "alt_km": 690.0082909984512,
        "timestamp": "2025-12-23T05:02:12.415127+00:00",
        "meta_object_name": "IRIDIUM 33 DEB",
        "meta_object_id": "1997-051FJ",
        "meta_epoch": "2025-12-22T10:47:10.372704",
        "meta_mean_motion": 14.54128755,
        "meta_eccentricity": 0.00230356,
        "meta_inclination": 86.3686,
        "meta_ra_of_asc_node": 45.09,
        "meta_arg_of_pericenter": 109.4758,
        "meta_mean_anomaly": 314.4093,
        "meta_ephemeris_type": 0,
        "meta_classification_type": "U",
        "meta_norad_cat_id": 34366,
        "meta_element_set_no": 999,
        "meta_rev_at_epoch": 88323,
        "meta_bstar": 0.000894432,
        "meta_mean_motion_dot": 3.813e-05,
        "meta_mean_motion_ddot": 0,
        "tle_line1": "1 34366U 97051FJ  25356.44942561  .00003813  00000+0  89443-3 0  9995",
        "tle_line2": "2 34366  86.3686  45.0900 0023035 109.4758 314.4093 14.54128755883236"
      },
      "geometry": {
        "type": "Point",
        "coordinates": [
          69.05036390587921,
          81.22412547320548
        ]
      }
    },
    {
      "type": "Feature",
      "properties": {
        "norad_id": 34375,
        "name": "IRIDIUM 33 DEB",
        "group": "iridium-33-debris",
        "lat": 77.80103018314976,
        "lon": -164.7464422537577,
        "alt_km": 752.8026909226564,
        "timestamp": "2025-12-23T05:02:12.415138+00:00",
        "meta_object_name": "IRIDIUM 33 DEB",
        "meta_object_id": "1997-051FT",
        "meta_epoch": "2025-12-22T12:02:26.342592",
        "meta_mean_motion": 14.18009533,
        "meta_eccentricity": 0.01037059,
        "meta_inclination": 86.4323,
        "meta_ra_of_asc_node": 178.7659,
        "meta_arg_of_pericenter": 96.2041,
        "meta_mean_anomaly": 329.6113,
        "meta_ephemeris_type": 0,
        "meta_classification_type": "U",
        "meta_norad_cat_id": 34375,
        "meta_element_set_no": 999,
        "meta_rev_at_epoch": 86850,
        "meta_bstar": 0.00038502204,
        "meta_mean_motion_dot": 8.51e-06,
        "meta_mean_motion_ddot": 0,
        "tle_line1": "1 34375U 97051FT  25356.50169378  .00000851  00000+0  38502-3 0  9998",
        "tle_line2": "2 34375  86.4323 178.7659 0103705  96.2041 329.6113 14.18009533868507"
      },
      "geometry": {
        "type": "Point",
        "coordinates": [
          -164.7464422537577,
          77.80103018314976
        ]
      }
    },
    {
      "type": "Feature",
      "properties": {
        "norad_id": 34376,
        "name": "IRIDIUM 33 DEB",
        "group": "iridium-33-debris",
        "lat": -29.130895575319606,
        "lon": -0.23611113963216138,
        "alt_km": 709.3665732237068,
        "timestamp": "2025-12-23T05:02:12.415148+00:00",
        "meta_object_name": "IRIDIUM 33 DEB",
        "meta_object_id": "1997-051FU",
        "meta_epoch": "2025-12-22T17:40:39.041472",
        "meta_mean_motion": 14.62694295,
        "meta_eccentricity": 0.00282683,
        "meta_inclination": 86.2978,
        "meta_ra_of_asc_node": 2.0446,
        "meta_arg_of_pericenter": 133.8099,
        "meta_mean_anomaly": 226.5457,
        "meta_ephemeris_type": 0,
        "meta_classification_type": "U",
        "meta_norad_cat_id": 34376,
        "meta_element_set_no": 999,
        "meta_rev_at_epoch": 88153,
        "meta_bstar": 0.0014444618,
        "meta_mean_motion_dot": 7.418e-05,
        "meta_mean_motion_ddot": 0,
        "tle_line1": "1 34376U 97051FU  25356.73656298  .00007418  00000+0  14445-2 0  9991",
        "tle_line2": "2 34376  86.2978   2.0446 0028268 133.8099 226.5457 14.62694295881534"
      },
      "geometry": {
        "type": "Point",
        "coordinates": [
          -0.23611113963216138,
          -29.130895575319606
        ]
      }
    },
    {
      "type": "Feature",
      "properties": {
        "norad_id": 34486,
        "name": "IRIDIUM 33 DEB",
        "group": "iridium-33-debris",
        "lat": 3.937420784326591,
        "lon": 7.439053301518068,
        "alt_km": 579.0646418572478,
        "timestamp": "2025-12-23T05:02:12.415158+00:00",
        "meta_object_name": "IRIDIUM 33 DEB",
        "meta_object_id": "1997-051GB",
        "meta_epoch": "2025-12-22T11:56:52.779840",
        "meta_mean_motion": 14.9620636,
        "meta_eccentricity": 0.00139165,
        "meta_inclination": 86.3926,
        "meta_ra_of_asc_node": 7.5191,
        "meta_arg_of_pericenter": 84.4454,
        "meta_mean_anomaly": 47.0404,
        "meta_ephemeris_type": 0,
        "meta_classification_type": "U",
        "meta_norad_cat_id": 34486,
        "meta_element_set_no": 999,
        "meta_rev_at_epoch": 89132,
        "meta_bstar": 0.002364133,
        "meta_mean_motion_dot": 0.00026794,
        "meta_mean_motion_ddot": 0,
        "tle_line1": "1 34486U 97051GB  25356.49783310  .00026794  00000+0  23641-2 0  9998",
        "tle_line2": "2 34486  86.3926   7.5191 0013916  84.4454  47.0404 14.96206360891322"
      },
      "geometry": {
        "type": "Point",
        "coordinates": [
          7.439053301518068,
          3.937420784326591
        ]
      }
    },
    {
      "type": "Feature",
      "properties": {
        "norad_id": 34487,
        "name": "IRIDIUM 33 DEB",
        "group": "iridium-33-debris",
        "lat": -12.714021072474928,
        "lon": -171.3040666098633,
        "alt_km": 755.2052051840119,
        "timestamp": "2025-12-23T05:02:12.415169+00:00",
        "meta_object_name": "IRIDIUM 33 DEB",
        "meta_object_id": "1997-051GC",
        "meta_epoch": "2025-12-22T12:14:23.193024",
        "meta_mean_motion": 14.43228274,
        "meta_eccentricity": 0.00332296,
        "meta_inclination": 86.3429,
        "meta_ra_of_asc_node": 8.1704,
        "meta_arg_of_pericenter": 97.9681,
        "meta_mean_anomaly": 60.3024,
        "meta_ephemeris_type": 0,
        "meta_classification_type": "U",
        "meta_norad_cat_id": 34487,
        "meta_element_set_no": 999,
        "meta_rev_at_epoch": 88389,
        "meta_bstar": 0.00017391804,
        "meta_mean_motion_dot": 6.09e-06,
        "meta_mean_motion_ddot": 0,
        "tle_line1": "1 34487U 97051GC  25356.50999066  .00000609  00000+0  17392-3 0  9992",
        "tle_line2": "2 34487  86.3429   8.1704 0033229  97.9681  60.3024 14.43228274883897"
      },
      "geometry": {
        "type": "Point",
        "coordinates": [
          -171.3040666098633,
          -12.714021072474928
        ]
      }
    },
    {
      "type": "Feature",
      "properties": {
        "norad_id": 34488,
        "name": "IRIDIUM 33 DEB",
        "group": "iridium-33-debris",
        "lat": -32.18588469712173,
        "lon": 122.93590719733976,
        "alt_km": 483.2895368210693,
        "timestamp": "2025-12-23T05:02:12.415179+00:00",
        "meta_object_name": "IRIDIUM 33 DEB",
        "meta_object_id": "1997-051GD",
        "meta_epoch": "2025-12-22T20:16:29.836992",
        "meta_mean_motion": 15.31851895,
        "meta_eccentricity": 0.00102762,
        "meta_inclination": 86.3272,
        "meta_ra_of_asc_node": 300.8002,
        "meta_arg_of_pericenter": 36.0994,
        "meta_mean_anomaly": 324.0947,
        "meta_ephemeris_type": 0,
        "meta_classification_type": "U",
        "meta_norad_cat_id": 34488,
        "meta_element_set_no": 999,
        "meta_rev_at_epoch": 89394,
        "meta_bstar": 0.0043586742,
        "meta_mean_motion_dot": 0.00136379,
        "meta_mean_motion_ddot": 0,
        "tle_line1": "1 34488U 97051GD  25356.84478978  .00136379  00000+0  43587-2 0  9992",
        "tle_line2": "2 34488  86.3272 300.8002 0010276  36.0994 324.0947 15.31851895893945"
      },
      "geometry": {
        "type": "Point",
        "coordinates": [
          122.93590719733976,
          -32.18588469712173
        ]
      }
    }
  ]
}